{
  "type": "FeatureCollection",
  "features": [
    {
      "type": "Feature",
      "properties": {
        "norad_id": 2807,
        "name": "OPS 7218 (TRANSIT 16)",
        "group": "nnss",
        "lat": -50.27124250073056,
        "lon": -6.738187706705828,
        "alt_km": 1088.2452846205406,
        "timestamp": "2025-12-23T14:49:09.659315+00:00",
        "meta_object_name": "OPS 7218 (TRANSIT 16)",
        "meta_object_id": "1967-048A",
        "meta_epoch": "2025-12-23T01:08:49.546752",
        "meta_mean_motion": 13.50724389,
        "meta_eccentricity": 0.00221615,
        "meta_inclination": 89.6731,
        "meta_ra_of_asc_node": 353.6742,
        "meta_arg_of_pericenter": 86.6117,
        "meta_mean_anomaly": 334.9058,
        "meta_ephemeris_type": 0,
        "meta_classification_type": "U",
        "meta_norad_cat_id": 2807,
        "meta_element_set_no": 999,
        "meta_rev_at_epoch": 88415,
        "meta_bstar": 0.00014649002,
        "meta_mean_motion_dot": 1.05e-06,
        "meta_mean_motion_ddot": 0,
        "tle_line1": "1 02807U 67048A   25357.04779568  .00000105  00000+0  14649-3 0  9992",
        "tle_line2": "2 02807  89.6731 353.6742 0022161  86.6117 334.9058 13.50724389884154"
      },
      "geometry": {
        "type": "Point",
        "coordinates": [
          -6.738187706705828,
          -50.27124250073056
        ]
      }
    },
    {
      "type": "Feature",
      "properties": {
        "norad_id": 2965,
        "name": "OPS 4947 (TRANSIT 17)",
        "group": "nnss",
        "lat": 59.15628101397287,
        "lon": -157.6535436154743,
        "alt_km": 1048.5601458658984,
        "timestamp": "2025-12-23T14:49:09.659339+00:00",
        "meta_object_name": "OPS 4947 (TRANSIT 17)",
        "meta_object_id": "1967-092A",
        "meta_epoch": "2025-12-23T01:55:51.648096",
        "meta_mean_motion": 13.53456258,
        "meta_eccentricity": 0.00469498,
        "meta_inclination": 89.2486,
        "meta_ra_of_asc_node": 23.6466,
        "meta_arg_of_pericenter": 203.7716,
        "meta_mean_anomaly": 182.5317,
        "meta_ephemeris_type": 0,
        "meta_classification_type": "U",
        "meta_norad_cat_id": 2965,
        "meta_element_set_no": 999,
        "meta_rev_at_epoch": 87237,
        "meta_bstar": 0.00019191812,
        "meta_mean_motion_dot": 1.41e-06,
        "meta_mean_motion_ddot": 0,
        "tle_line1": "1 02965U 67092A   25357.08045889  .00000141  00000+0  19192-3 0  9990",
        "tle_line2": "2 02965  89.2486  23.6466 0046949 203.7716 182.5317 13.53456258872372"
      },
      "geometry": {
        "type": "Point",
        "coordinates": [
          -157.6535436154743,
          59.15628101397287
        ]
      }
    },
    {
      "type": "Feature",
      "properties": {
        "norad_id": 3133,
        "name": "OPS 7034 (TRANSIT 18)",
        "group": "nnss",
        "lat": -17.490487105421497,
        "lon": 93.66090626241933,
        "alt_km": 1042.8725595659207,
        "timestamp": "2025-12-23T14:49:09.659353+00:00",
        "meta_object_name": "OPS 7034 (TRANSIT 18)",
        "meta_object_id": "1968-012A",
        "meta_epoch": "2025-12-23T05:43:06.267072",
        "meta_mean_motion": 13.51568112,
        "meta_eccentricity": 0.00748279,
        "meta_inclination": 90.0285,
        "meta_ra_of_asc_node": 273.6688,
        "meta_arg_of_pericenter": 138.9432,
        "meta_mean_anomaly": 13.7146,
        "meta_ephemeris_type": 0,
        "meta_classification_type": "U",
        "meta_norad_cat_id": 3133,
        "meta_element_set_no": 999,
        "meta_rev_at_epoch": 57060,
        "meta_bstar": 0.00021198216,
        "meta_mean_motion_dot": 1.51e-06,
        "meta_mean_motion_ddot": 0,
        "tle_line1": "1 03133U 68012A   25357.23826698  .00000151  00000+0  21198-3 0  9993",
        "tle_line2": "2 03133  90.0285 273.6688 0074827 138.9432  13.7146 13.51568112570607"
      },
      "geometry": {
        "type": "Point",
        "coordinates": [
          93.66090626241933,
          -17.490487105421497
        ]
      }
    },
    {
      "type": "Feature",
      "properties": {
        "norad_id": 4507,
        "name": "NNSS 19 (TRANSIT 19)",
        "group": "nnss",
        "lat": 23.50235429197387,
        "lon": 54.54333178459018,
        "alt_km": 1098.041210175078,
        "timestamp": "2025-12-23T14:49:09.659366+00:00",
        "meta_object_name": "NNSS 19 (TRANSIT 19)",
        "meta_object_id": "1970-067A",
        "meta_epoch": "2025-12-23T05:08:36.510144",
        "meta_mean_motion": 13.51317207,
        "meta_eccentricity": 0.01702239,
        "meta_inclination": 90.0049,
        "meta_ra_of_asc_node": 234.541,
        "meta_arg_of_pericenter": 262.7201,
        "meta_mean_anomaly": 95.4575,
        "meta_ephemeris_type": 0,
        "meta_classification_type": "U",
        "meta_norad_cat_id": 4507,
        "meta_element_set_no": 999,
        "meta_rev_at_epoch": 72363,
        "meta_bstar": 0.00015353902,
        "meta_mean_motion_dot": 1.17e-06,
        "meta_mean_motion_ddot": 0,
        "tle_line1": "1 04507U 70067A   25357.21431146  .00000117  00000+0  15354-3 0  9999",
        "tle_line2": "2 04507  90.0049 234.5410 0170223 262.7201  95.4575 13.51317207723630"
      },
      "geometry": {
        "type": "Point",
        "coordinates": [
          54.54333178459018,
          23.50235429197387
        ]
      }
    },
    {
      "type": "Feature",
      "properties": {
        "norad_id": 6909,
        "name": "NNSS 20 (TRANSIT 20)",
        "group": "nnss",
        "lat": -63.97467416322834,
        "lon": -105.40368549978642,
        "alt_km": 1039.5002840306124,
        "timestamp": "2025-12-23T14:49:09.659378+00:00",
        "meta_object_name": "NNSS 20 (TRANSIT 20)",
        "meta_object_id": "1973-081A",
        "meta_epoch": "2025-12-23T04:37:21.546336",
        "meta_mean_motion": 13.71439685,
        "meta_eccentricity": 0.01562589,
        "meta_inclination": 89.8561,
        "meta_ra_of_asc_node": 254.8976,
        "meta_arg_of_pericenter": 47.344,
        "meta_mean_anomaly": 314.0769,
        "meta_ephemeris_type": 0,
        "meta_classification_type": "U",
        "meta_norad_cat_id": 6909,
        "meta_element_set_no": 999,
        "meta_rev_at_epoch": 80504,
        "meta_bstar": 0.00028015774,
        "meta_mean_motion_dot": 2.86e-06,
        "meta_mean_motion_ddot": 0,
        "tle_line1": "1 06909U 73081A   25357.19261049  .00000286  00000+0  28016-3 0  9992",
        "tle_line2": "2 06909  89.8561 254.8976 0156258  47.3440 314.0769 13.71439685805047"
      },
      "geometry": {
        "type": "Point",
        "coordinates": [
          -105.40368549978642,
          -63.97467416322834
        ]
      }
    },
    {
      "type": "Feature",
      "properties": {
        "norad_id": 10457,
        "name": "TRANSAT",
        "group": "nnss",
        "lat": 70.20472121097264,
        "lon": 79.19118110475044,
        "alt_km": 1068.814966645593,
        "timestamp": "2025-12-23T14:49:09.659391+00:00",
        "meta_object_name": "TRANSAT",
        "meta_object_id": "1977-106A",
        "meta_epoch": "2025-12-23T05:50:16.228896",
        "meta_mean_motion": 13.48945159,
        "meta_eccentricity": 0.00263594,
        "meta_inclination": 89.6477,
        "meta_ra_of_asc_node": 78.225,
        "meta_arg_of_pericenter": 159.6405,
        "meta_mean_anomaly": 254.6496,
        "meta_ephemeris_type": 0,
        "meta_classification_type": "U",
        "meta_norad_cat_id": 10457,
        "meta_element_set_no": 999,
        "meta_rev_at_epoch": 36885,
        "meta_bstar": 0.00013210866,
        "meta_mean_motion_dot": 9.3e-07,
        "meta_mean_motion_ddot": 0,
        "tle_line1": "1 10457U 77106A   25357.24324339  .00000093  00000+0  13211-3 0  9992",
        "tle_line2": "2 10457  89.6477  78.2250 0026359 159.6405 254.6496 13.48945159368854"
      },
      "geometry": {
        "type": "Point",
        "coordinates": [
          79.19118110475044,
          70.20472121097264
        ]
      }
    },
    {
      "type": "Feature",
      "properties": {
        "norad_id": 12458,
        "name": "NOVA 1",
        "group": "nnss",
        "lat": 48.23704640617341,
        "lon": 91.39664228180884,
        "alt_km": 1157.483827791466,
        "timestamp": "2025-12-23T14:49:09.659403+00:00",
        "meta_object_name": "NOVA 1",
        "meta_object_id": "1981-044A",
        "meta_epoch": "2025-12-23T05:48:16.496640",
        "meta_mean_motion": 13.23279622,
        "meta_eccentricity": 0.00157914,
        "meta_inclination": 89.8526,
        "meta_ra_of_asc_node": 91.2368,
        "meta_arg_of_pericenter": 78.1939,
        "meta_mean_anomaly": 341.8782,
        "meta_ephemeris_type": 0,
        "meta_classification_type": "U",
        "meta_norad_cat_id": 12458,
        "meta_element_set_no": 999,
        "meta_rev_at_epoch": 15325,
        "meta_bstar": 0.00019952655,
        "meta_mean_motion_dot": 9.3e-07,
        "meta_mean_motion_ddot": 0,
        "tle_line1": "1 12458U 81044A   25357.24185760  .00000093  00000+0  19953-3 0  9993",
        "tle_line2": "2 12458  89.8526  91.2368 0015791  78.1939 341.8782 13.23279622153255"
      },
      "geometry": {
        "type": "Point",
        "coordinates": [
          91.39664228180884,
          48.23704640617341
        ]
      }
    }
  ]
}